XW-2F
1 40910U 15049M   17061.84622404  .00002527  00000-0  13799-3 0  9996
2 40910  97.4550  69.7885 0014617 213.9857 146.0440 15.15149400 80055
XW-2B
1 40911U 15049N   17061.85571978  .00001448  00000-0  82434-4 0  9991
2 40911  97.4570  69.5984 0013598 216.2076 143.8236 15.14349997 80041
DCBB
1 40912U 15049P   17061.72439145  .00001827  00000-0  95105-4 0  9997
2 40912  97.4523  71.2010 0014658 207.7382 263.4344 15.17202344 80140
TW-1C
1 40926U 15051B   17061.82648903  .00008735  00000-0  21419-3 0  9991
2 40926  97.2427 102.2593 0011775 186.7408 259.7978 15.40883782 80530
TW-1A
1 40928U 15051D   17061.74640057  .00004460  00000-0  13269-3 0  9991
2 40928  97.2397  99.4603 0011817 214.6668 237.8869 15.35178336 80366
IO-86
1 40931U 15052B   17061.31745863  .00000752  00000-0  15799-4 0  9991
2 40931   5.9999 274.7037 0012940 174.0878 185.9540 14.76513732 77141
GomX-3
1 40949U 98067HA  16292.18357804  .08527750  12374-4  77882-3 0  9992
2 40949  51.6055 106.7696 0006699 286.1344  73.8944 16.38002265 59645
LQSat
1 40958U 15057A   17061.79917104  .00000065  00000-0  17871-4 0  9996
2 40958  97.9871 138.9329 0019412  49.7000 310.5891 14.72945718 75457
AO-85
1 40967U 15058D   17061.34293778  .00000428  00000-0  68426-4 0 04138
2 40967 064.7754 182.9425 0174741 117.5910 244.3062 14.75332987061355
ATHENOXAT-1
1 41168U 15077C   17061.75490838  .00002903  00000-0  12887-3 0  9992
2 41168  14.9857 226.7373 0012722 340.0475 129.3975 15.11160991 66915
ChubuSat-2
1 41338U 16012B   17060.72831218  .00000711  00000-0  49432-4 0  9990
2 41338  31.0036  74.6969 0013938  75.9270 284.2914 14.99656729 56840
ChubuSat-3
1 41339U 16012C   17061.40350733  .00000527  00000-0  34678-4 0  9996
2 41339  31.0109  69.7279 0013723  89.0749 271.1459 14.99868331 56922
Horyu-4
1 41340U 16012D   17061.22192057  .00001025  00000-0  72740-4 0  9997
2 41340  31.0055  69.0623 0014294  94.6279 265.5990 15.00457062 56930
OUFTI-1
1 41458U 16025C   17061.11945490  .00001345  00000-0  77300-4 0  9998
2 41458  98.1949  92.5287 0174991 287.2600  70.9540 15.02627747 46492
e-st at r-II
1 41459U 16025D   17060.86410491  .00002200  00000-0  12404-3 0  9992
2 41459 098.1986 092.2326 0174026 288.5121 069.7261 15.02518027046458
AAUSAT4
1 41460U 16025E   17061.85001817  .00002397  00000-0  13482-3 0  9996
2 41460  98.1880  93.3298 0168148 284.0025  74.2608 15.03205778 46616
MinXSS
1 41474U 98067HU  17061.56181187  .00170657  00000-0  87921-3 0  9998
2 41474  51.6450 185.9631 0003023 357.0279   3.0704 15.80123870 45432
CADRE
1 41475U 98067HV  17003.74787607  .12518598  12537-4  55989-3 0  9998
2 41475  51.6110 110.0165 0004040 312.3134  47.7551 16.43344525 36494
NODES 1
1 41477U 98067HX  17060.74195087  .00068571  00000-0  54267-3 0  9992
2 41477  51.6349 196.9145 0002376   3.6421 356.4593 15.70691015 45124
NODES 2
1 41478U 98067HY  17061.77751324  .00063229  00000-0  50288-3 0  9993
2 41478  51.6344 191.8288 0002395   5.4935 354.6088 15.70605088 45284
LO-87
1 41557U 16033B   17061.84378971  .00003128  00000-0  12197-3 0  9994
2 41557  97.4705 141.3561 0015093  28.7991 331.4077 15.26604197 42205
NuSat2
1 41558U 16033C   17061.80261390  .00003195  00000-0  12501-3 0  9990
2 41558  97.4732 141.3506 0014528  27.8763 332.3251 15.26480622 42191
Lapan A3
1 41603U 16040E   17061.81910396  .00000429  00000-0  23577-4 0  9990
2 41603  97.4754 124.9963 0015332  85.1514  55.8930 15.19273863 38505
Swayam
1 41607U 16040J   17061.45527465  .00004160  00000-0  19414-3 0  9995
2 41607  97.4737 124.7448 0016246  90.3118 269.9979 15.20280490 38382
Pratham
1 41783U 16059A   17061.86483537  .00000105  00000-0  29880-4 0  9990
2 41783  98.1811 124.2666 0034705 132.9029 227.5095 14.62808683 23051
AlSat 1N
1 41789U 16059G   17061.80431651  .00000148  00000-0  37277-4 0  9996
2 41789  98.1812 124.5035 0029575 127.5524 232.8358 14.64012429 23047
ScatSat
1 41790U 16059H   17061.17346903  .00000023  00000-0  16646-4 0  9992
2 41790  98.0805 115.6692 0012480 114.4720 245.7778 14.50095975 22758
TY-1
1 41844U 16066D   17061.89541950  .00001487  00000-0  68584-4 0  9991
2 41844  97.4060  70.6750 0014359 249.1284 199.1204 15.21733989 17176
CAS-2T
1 41845U 16066E   17061.84738537 -.00000073  00000-0  00000 0 0  9991
2 41845  98.7798  74.9174 0366339 203.6624 154.7347 14.37704665 16211
Pegasus-1
1 41846U 16066F   17061.77459390 -.00000072  00000-0  00000 0 0  9990
2 41846  98.7828  74.7288 0369421 204.7249 153.5861 14.36890737 16190
STARS-C
1 41895U 98067KR  17061.48983649  .00022623  00000-0  31749-3 0  9995
2 41895  51.6411 209.4931 0005586 276.7039  83.3321 15.56624946 11340
Tancredo 1
1 41931U 98067KT  17061.87597829  .00045454  00000-0  60164-3 0  9990
2 41931  51.6446 207.5731 0008568 249.9966 110.0129 15.57803547  6974
ITF-2
1 41932U 98067KU  17061.45364888  .00017345  00000-0  25125-3 0  9998
2 41932  51.6408 209.9964 0006905 226.9566 133.0859 15.55950974  6904
AOBA-V3LOX3
1 41935U 98067KX  17061.90453885  .00019968  00000-0  28788-3 0  9998
2 41935  51.6425 207.7632 0005552 231.1557 128.8939 15.55979555  7075
OSNSAT
1 41939U 98067KZ  17061.69302593  .00032907  00000-0  45000-3 0  9991
2 41939  51.6440 208.6008 0009736 243.0069 117.0441 15.57071454  6295
Nayif-1
1 42017U 17008BX  17061.65042639  .00002482  00000-0  11033-3 0  9997
2 42017  97.5091 123.2706 0005390 224.9607 135.1205 15.22462130  2280
